{
  "norad_id": 52838,
  "name": "STARLINK-4092",
  "history": [
    {
      "epoch": "2026-03-28T19:51:14.289408Z",
      "apogee_km": 540.6501582317269,
      "perigee_km": 538.8490172797392,
      "latitude_deg": -5.987207945237817e-05,
      "longitude_deg": -175.85089315915715,
      "height_km": 540.7768749377487,
      "semi_major_axis_km": 6917.886587755733,
      "eccentricity": 0.00013018,
      "inclination_deg": 53.2175,
      "raan_deg": 308.2008,
      "arg_perigee_deg": 98.394,
      "mean_anomaly_deg": 261.7199,
      "mean_motion_rev_day": 15.08837972
    }
  ]
}